ONEWEB-0342             
1 49208U 21083Y   25338.50439874  .00000129  00000+0  28587-3 0  9992
2 49208  87.9197 313.2601 0001918  81.9802 278.1549 13.20770135211086
ONEWEB-0343             
1 49209U 21083Z   25338.60162258  .00000084  00000+0  17952-3 0  9997
2 49209  87.9189  14.1027 0001685  77.2092 282.9228 13.18684642204394
ONEWEB-0344             
1 49210U 21083AA  25338.56227500 -.00000170  00000+0 -49959-3 0  9996
2 49210  87.8974 358.9497 0001377  86.4117 273.7169 13.13470845205346
ONEWEB-0345             
1 49211U 21083AB  25338.62998808 -.00000250  00000+0 -71962-3 0  9998
2 49211  87.8980 358.8953 0001451  84.3370 275.7925 13.13470610205365
ONEWEB-0346             
1 49212U 21083AC  25338.59832617  .00000094  00000+0  20520-3 0  9998
2 49212  87.9182  14.1190 0001715 117.4751 242.6556 13.18686514204336
ONEWEB-0348             
1 49213U 21083AD  25338.64644013  .00000169  00000+0  38290-3 0  9992
2 49213  87.9185 313.2382 0001244  91.0446 269.0830 13.20770644211136
ONEWEB-0350             
1 49214U 21083AE  25338.56312213 -.00000162  00000+0 -47842-3 0  9996
2 49214  87.8984 358.9060 0001414  90.2628 269.8663 13.13470554205385
ONEWEB-0351             
1 49215U 21083AF  25338.63999541  .00000091  00000+0  19295-3 0  9990
2 49215  87.9195 313.2353 0002333  64.6193 295.5182 13.20773721211090
ONEWEB-0352             
1 49216U 21083AG  25338.54365749 -.00000195  00000+0 -56889-3 0  9995
2 49216  87.8971 358.9335 0001977  81.6594 278.4759 13.13470082205476
ONEWEB-0354             
1 49217U 21083AH  25338.66537021 -.00000195  00000+0 -51107-3 0  9991
2 49217  87.9197 313.2291 0001476  82.7149 277.4152 13.20771109211133
ONEWEB-0355             
1 49218U 21083AJ  25338.57257432  .00000092  00000+0  21798-3 0  9994
2 49218  87.8974 358.9406 0001667  85.3514 274.7805 13.13471282205350
ONEWEB-0357             
1 49219U 21083AK  25338.43494964  .00000079  00000+0  16350-3 0  9996
2 49219  87.9196 313.2715 0001789  79.1856 280.9479 13.20774023211103
ONEWEB-0332             
1 49279U 21090A   25338.50935134  .00000232  00000+0  59195-3 0  9992
2 49279  87.8976 328.5035 0002010  86.8135 273.3225 13.14502569202002
ONEWEB-0347             
1 49280U 21090B   25338.50125128  .00000168  00000+0  38032-3 0  9993
2 49280  87.9188 313.2693 0002093  88.9300 271.2073 13.20772590205347
ONEWEB-0349             
1 49281U 21090C   25338.38128591  .00000021  00000+0  20611-4 0  9990
2 49281  87.9186 313.2920 0001831  82.1335 278.0006 13.20774313204112
ONEWEB-0353             
1 49282U 21090D   25338.50141329  .00000253  00000+0  64776-3 0  9995
2 49282  87.8987 328.4896 0002019  87.8577 272.2784 13.14503580202004
ONEWEB-0356             
1 49283U 21090E   25338.45546456  .00000022  00000+0  22159-4 0  9994
2 49283  87.9192 313.2692 0002025 112.1040 248.0309 13.20770158204127
