[{"OBJECT_NAME":"ONEWEB-0342","OBJECT_ID":"2021-083Y","EPOCH":"2025-12-04T12:06:20.051136","MEAN_MOTION":13.20770135,"ECCENTRICITY":0.0001918,"INCLINATION":87.9197,"RA_OF_ASC_NODE":313.2601,"ARG_OF_PERICENTER":81.9802,"MEAN_ANOMALY":278.1549,"EPHEMERIS_TYPE":0,"CLASSIFICATION_TYPE":"U","NORAD_CAT_ID":49208,"ELEMENT_SET_NO":999,"REV_AT_EPOCH":21108,"BSTAR":0.00028587,"MEAN_MOTION_DOT":1.29e-6,"MEAN_MOTION_DDOT":0},{"OBJECT_NAME":"ONEWEB-0343","OBJECT_ID":"2021-083Z","EPOCH":"2025-12-04T14:26:20.190912","MEAN_MOTION":13.18684642,"ECCENTRICITY":0.0001685,"INCLINATION":87.9189,"RA_OF_ASC_NODE":14.1027,"ARG_OF_PERICENTER":77.2092,"MEAN_ANOMALY":282.9228,"EPHEMERIS_TYPE":0,"CLASSIFICATION_TYPE":"U","NORAD_CAT_ID":49209,"ELEMENT_SET_NO":999,"REV_AT_EPOCH":20439,"BSTAR":0.00017952,"MEAN_MOTION_DOT":8.4e-7,"MEAN_MOTION_DDOT":0},{"OBJECT_NAME":"ONEWEB-0344","OBJECT_ID":"2021-083AA","EPOCH":"2025-12-04T13:29:40.560000","MEAN_MOTION":13.13470845,"ECCENTRICITY":0.0001377,"INCLINATION":87.8974,"RA_OF_ASC_NODE":358.9497,"ARG_OF_PERICENTER":86.4117,"MEAN_ANOMALY":273.7169,"EPHEMERIS_TYPE":0,"CLASSIFICATION_TYPE":"U","NORAD_CAT_ID":49210,"ELEMENT_SET_NO":999,"REV_AT_EPOCH":20534,"BSTAR":-0.00049959,"MEAN_MOTION_DOT":-1.7e-6,"MEAN_MOTION_DDOT":0},{"OBJECT_NAME":"ONEWEB-0345","OBJECT_ID":"2021-083AB","EPOCH":"2025-12-04T15:07:10.970112","MEAN_MOTION":13.1347061,"ECCENTRICITY":0.0001451,"INCLINATION":87.898,"RA_OF_ASC_NODE":358.8953,"ARG_OF_PERICENTER":84.337,"MEAN_ANOMALY":275.7925,"EPHEMERIS_TYPE":0,"CLASSIFICATION_TYPE":"U","NORAD_CAT_ID":49211,"ELEMENT_SET_NO":999,"REV_AT_EPOCH":20536,"BSTAR":-0.00071962,"MEAN_MOTION_DOT":-2.5e-6,"MEAN_MOTION_DDOT":0},{"OBJECT_NAME":"ONEWEB-0346","OBJECT_ID":"2021-083AC","EPOCH":"2025-12-04T14:21:35.381088","MEAN_MOTION":13.18686514,"ECCENTRICITY":0.0001715,"INCLINATION":87.9182,"RA_OF_ASC_NODE":14.119,"ARG_OF_PERICENTER":117.4751,"MEAN_ANOMALY":242.6556,"EPHEMERIS_TYPE":0,"CLASSIFICATION_TYPE":"U","NORAD_CAT_ID":49212,"ELEMENT_SET_NO":999,"REV_AT_EPOCH":20433,"BSTAR":0.0002052,"MEAN_MOTION_DOT":9.4e-7,"MEAN_MOTION_DDOT":0},{"OBJECT_NAME":"ONEWEB-0348","OBJECT_ID":"2021-083AD","EPOCH":"2025-12-04T15:30:52.427232","MEAN_MOTION":13.20770644,"ECCENTRICITY":0.0001244,"INCLINATION":87.9185,"RA_OF_ASC_NODE":313.2382,"ARG_OF_PERICENTER":91.0446,"MEAN_ANOMALY":269.083,"EPHEMERIS_TYPE":0,"CLASSIFICATION_TYPE":"U","NORAD_CAT_ID":49213,"ELEMENT_SET_NO":999,"REV_AT_EPOCH":21113,"BSTAR":0.0003829,"MEAN_MOTION_DOT":1.69e-6,"MEAN_MOTION_DDOT":0},{"OBJECT_NAME":"ONEWEB-0350","OBJECT_ID":"2021-083AE","EPOCH":"2025-12-04T13:30:53.752032","MEAN_MOTION":13.13470554,"ECCENTRICITY":0.0001414,"INCLINATION":87.8984,"RA_OF_ASC_NODE":358.906,"ARG_OF_PERICENTER":90.2628,"MEAN_ANOMALY":269.8663,"EPHEMERIS_TYPE":0,"CLASSIFICATION_TYPE":"U","NORAD_CAT_ID":49214,"ELEMENT_SET_NO":999,"REV_AT_EPOCH":20538,"BSTAR":-0.00047842,"MEAN_MOTION_DOT":-1.62e-6,"MEAN_MOTION_DDOT":0},{"OBJECT_NAME":"ONEWEB-0351","OBJECT_ID":"2021-083AF","EPOCH":"2025-12-04T15:21:35.603424","MEAN_MOTION":13.20773721,"ECCENTRICITY":0.0002333,"INCLINATION":87.9195,"RA_OF_ASC_NODE":313.2353,"ARG_OF_PERICENTER":64.6193,"MEAN_ANOMALY":295.5182,"EPHEMERIS_TYPE":0,"CLASSIFICATION_TYPE":"U","NORAD_CAT_ID":49215,"ELEMENT_SET_NO":999,"REV_AT_EPOCH":21109,"BSTAR":0.00019295,"MEAN_MOTION_DOT":9.1e-7,"MEAN_MOTION_DDOT":0},{"OBJECT_NAME":"ONEWEB-0352","OBJECT_ID":"2021-083AG","EPOCH":"2025-12-04T13:02:52.007136","MEAN_MOTION":13.13470082,"ECCENTRICITY":0.0001977,"INCLINATION":87.8971,"RA_OF_ASC_NODE":358.9335,"ARG_OF_PERICENTER":81.6594,"MEAN_ANOMALY":278.4759,"EPHEMERIS_TYPE":0,"CLASSIFICATION_TYPE":"U","NORAD_CAT_ID":49216,"ELEMENT_SET_NO":999,"REV_AT_EPOCH":20547,"BSTAR":-0.00056889,"MEAN_MOTION_DOT":-1.95e-6,"MEAN_MOTION_DDOT":0},{"OBJECT_NAME":"ONEWEB-0354","OBJECT_ID":"2021-083AH","EPOCH":"2025-12-04T15:58:07.986144","MEAN_MOTION":13.20771109,"ECCENTRICITY":0.0001476,"INCLINATION":87.9197,"RA_OF_ASC_NODE":313.2291,"ARG_OF_PERICENTER":82.7149,"MEAN_ANOMALY":277.4152,"EPHEMERIS_TYPE":0,"CLASSIFICATION_TYPE":"U","NORAD_CAT_ID":49217,"ELEMENT_SET_NO":999,"REV_AT_EPOCH":21113,"BSTAR":-0.00051107,"MEAN_MOTION_DOT":-1.95e-6,"MEAN_MOTION_DDOT":0},{"OBJECT_NAME":"ONEWEB-0355","OBJECT_ID":"2021-083AJ","EPOCH":"2025-12-04T13:44:30.421248","MEAN_MOTION":13.13471282,"ECCENTRICITY":0.0001667,"INCLINATION":87.8974,"RA_OF_ASC_NODE":358.9406,"ARG_OF_PERICENTER":85.3514,"MEAN_ANOMALY":274.7805,"EPHEMERIS_TYPE":0,"CLASSIFICATION_TYPE":"U","NORAD_CAT_ID":49218,"ELEMENT_SET_NO":999,"REV_AT_EPOCH":20535,"BSTAR":0.00021798,"MEAN_MOTION_DOT":9.2e-7,"MEAN_MOTION_DDOT":0},{"OBJECT_NAME":"ONEWEB-0357","OBJECT_ID":"2021-083AK","EPOCH":"2025-12-04T10:26:19.648896","MEAN_MOTION":13.20774023,"ECCENTRICITY":0.0001789,"INCLINATION":87.9196,"RA_OF_ASC_NODE":313.2715,"ARG_OF_PERICENTER":79.1856,"MEAN_ANOMALY":280.9479,"EPHEMERIS_TYPE":0,"CLASSIFICATION_TYPE":"U","NORAD_CAT_ID":49219,"ELEMENT_SET_NO":999,"REV_AT_EPOCH":21110,"BSTAR":0.0001635,"MEAN_MOTION_DOT":7.9e-7,"MEAN_MOTION_DDOT":0},{"OBJECT_NAME":"ONEWEB-0332","OBJECT_ID":"2021-090A","EPOCH":"2025-12-04T12:13:27.955776","MEAN_MOTION":13.14502569,"ECCENTRICITY":0.000201,"INCLINATION":87.8976,"RA_OF_ASC_NODE":328.5035,"ARG_OF_PERICENTER":86.8135,"MEAN_ANOMALY":273.3225,"EPHEMERIS_TYPE":0,"CLASSIFICATION_TYPE":"U","NORAD_CAT_ID":49279,"ELEMENT_SET_NO":999,"REV_AT_EPOCH":20200,"BSTAR":0.00059195,"MEAN_MOTION_DOT":2.32e-6,"MEAN_MOTION_DDOT":0},{"OBJECT_NAME":"ONEWEB-0347","OBJECT_ID":"2021-090B","EPOCH":"2025-12-04T12:01:48.110592","MEAN_MOTION":13.2077259,"ECCENTRICITY":0.0002093,"INCLINATION":87.9188,"RA_OF_ASC_NODE":313.2693,"ARG_OF_PERICENTER":88.93,"MEAN_ANOMALY":271.2073,"EPHEMERIS_TYPE":0,"CLASSIFICATION_TYPE":"U","NORAD_CAT_ID":49280,"ELEMENT_SET_NO":999,"REV_AT_EPOCH":20534,"BSTAR":0.00038032,"MEAN_MOTION_DOT":1.68e-6,"MEAN_MOTION_DDOT":0},{"OBJECT_NAME":"ONEWEB-0349","OBJECT_ID":"2021-090C","EPOCH":"2025-12-04T09:09:03.102624","MEAN_MOTION":13.20774313,"ECCENTRICITY":0.0001831,"INCLINATION":87.9186,"RA_OF_ASC_NODE":313.292,"ARG_OF_PERICENTER":82.1335,"MEAN_ANOMALY":278.0006,"EPHEMERIS_TYPE":0,"CLASSIFICATION_TYPE":"U","NORAD_CAT_ID":49281,"ELEMENT_SET_NO":999,"REV_AT_EPOCH":20411,"BSTAR":2.0611e-5,"MEAN_MOTION_DOT":2.1e-7,"MEAN_MOTION_DDOT":0},{"OBJECT_NAME":"ONEWEB-0353","OBJECT_ID":"2021-090D","EPOCH":"2025-12-04T12:02:02.108256","MEAN_MOTION":13.1450358,"ECCENTRICITY":0.0002019,"INCLINATION":87.8987,"RA_OF_ASC_NODE":328.4896,"ARG_OF_PERICENTER":87.8577,"MEAN_ANOMALY":272.2784,"EPHEMERIS_TYPE":0,"CLASSIFICATION_TYPE":"U","NORAD_CAT_ID":49282,"ELEMENT_SET_NO":999,"REV_AT_EPOCH":20200,"BSTAR":0.00064776,"MEAN_MOTION_DOT":2.53e-6,"MEAN_MOTION_DDOT":0},{"OBJECT_NAME":"ONEWEB-0356","OBJECT_ID":"2021-090E","EPOCH":"2025-12-04T10:55:52.137984","MEAN_MOTION":13.20770158,"ECCENTRICITY":0.0002025,"INCLINATION":87.9192,"RA_OF_ASC_NODE":313.2692,"ARG_OF_PERICENTER":112.104,"MEAN_ANOMALY":248.0309,"EPHEMERIS_TYPE":0,"CLASSIFICATION_TYPE":"U","NORAD_CAT_ID":49283,"ELEMENT_SET_NO":999,"REV_AT_EPOCH":20412,"BSTAR":2.2159e-5,"MEAN_MOTION_DOT":2.2e-7,"MEAN_MOTION_DDOT":0}]
